[{"OBJECT_NAME":"ATLAS 5 CENTAUR DEB","OBJECT_ID":"2014-055DE","EPOCH":"2026-02-24T13:53:35.301984","MEAN_MOTION":1.79155303,"ECCENTRICITY":0.48862881,"INCLINATION":19.2659,"RA_OF_ASC_NODE":177.197,"ARG_OF_PERICENTER":106.0275,"MEAN_ANOMALY":311.3048,"EPHEMERIS_TYPE":0,"CLASSIFICATION_TYPE":"U","NORAD_CAT_ID":47096,"ELEMENT_SET_NO":999,"REV_AT_EPOCH":3510,"BSTAR":0,"MEAN_MOTION_DOT":-1.6e-7,"MEAN_MOTION_DDOT":0},{"OBJECT_NAME":"LUCAS (JDRS-1)","OBJECT_ID":"2020-089A","EPOCH":"2026-03-02T20:01:12.014112","MEAN_MOTION":1.00273605,"ECCENTRICITY":0.0002839,"INCLINATION":0.0647,"RA_OF_ASC_NODE":275.3339,"ARG_OF_PERICENTER":60.9087,"MEAN_ANOMALY":215.4105,"EPHEMERIS_TYPE":0,"CLASSIFICATION_TYPE":"U","NORAD_CAT_ID":47202,"ELEMENT_SET_NO":999,"REV_AT_EPOCH":1935,"BSTAR":0,"MEAN_MOTION_DOT":-2.52e-6,"MEAN_MOTION_DDOT":0},{"OBJECT_NAME":"SXM-7","OBJECT_ID":"2020-096A","EPOCH":"2026-03-02T08:50:38.666112","MEAN_MOTION":1.00275144,"ECCENTRICITY":0.00040249,"INCLINATION":0.0187,"RA_OF_ASC_NODE":122.031,"ARG_OF_PERICENTER":7.7857,"MEAN_ANOMALY":77.7989,"EPHEMERIS_TYPE":0,"CLASSIFICATION_TYPE":"U","NORAD_CAT_ID":47240,"ELEMENT_SET_NO":999,"REV_AT_EPOCH":637,"BSTAR":0,"MEAN_MOTION_DOT":-2.23e-6,"MEAN_MOTION_DDOT":0},{"OBJECT_NAME":"BREEZE-M DEB [TANK]","OBJECT_ID":"2020-097B","EPOCH":"2026-03-01T04:17:46.363776","MEAN_MOTION":2.20431771,"ECCENTRICITY":0.73024583,"INCLINATION":58.2648,"RA_OF_ASC_NODE":130.5864,"ARG_OF_PERICENTER":103.3091,"MEAN_ANOMALY":340.4143,"EPHEMERIS_TYPE":0,"CLASSIFICATION_TYPE":"U","NORAD_CAT_ID":47243,"ELEMENT_SET_NO":999,"REV_AT_EPOCH":4182,"BSTAR":0.00069123528,"MEAN_MOTION_DOT":6.16e-6,"MEAN_MOTION_DDOT":0},{"OBJECT_NAME":"CMS-01","OBJECT_ID":"2020-099A","EPOCH":"2026-03-02T15:48:26.553024","MEAN_MOTION":1.00272363,"ECCENTRICITY":0.0006539,"INCLINATION":0.0149,"RA_OF_ASC_NODE":136.5446,"ARG_OF_PERICENTER":152.2006,"MEAN_ANOMALY":191.7769,"EPHEMERIS_TYPE":0,"CLASSIFICATION_TYPE":"U","NORAD_CAT_ID":47256,"ELEMENT_SET_NO":999,"REV_AT_EPOCH":1913,"BSTAR":0,"MEAN_MOTION_DOT":-1.81e-6,"MEAN_MOTION_DDOT":0},{"OBJECT_NAME":"TURKSAT 5A","OBJECT_ID":"2021-001A","EPOCH":"2026-03-02T17:41:05.968032","MEAN_MOTION":1.00270284,"ECCENTRICITY":1.47e-5,"INCLINATION":0.0199,"RA_OF_ASC_NODE":100.9178,"ARG_OF_PERICENTER":199.6848,"MEAN_ANOMALY":156.0918,"EPHEMERIS_TYPE":0,"CLASSIFICATION_TYPE":"U","NORAD_CAT_ID":47306,"ELEMENT_SET_NO":999,"REV_AT_EPOCH":1889,"BSTAR":0,"MEAN_MOTION_DOT":1.37e-6,"MEAN_MOTION_DDOT":0},{"OBJECT_NAME":"FALCON 9 R/B","OBJECT_ID":"2021-001B","EPOCH":"2026-03-01T18:37:40.484064","MEAN_MOTION":1.65124071,"ECCENTRICITY":0.77749032,"INCLINATION":15.9489,"RA_OF_ASC_NODE":217.5515,"ARG_OF_PERICENTER":337.7507,"MEAN_ANOMALY":1.4356,"EPHEMERIS_TYPE":0,"CLASSIFICATION_TYPE":"U","NORAD_CAT_ID":47307,"ELEMENT_SET_NO":999,"REV_AT_EPOCH":2838,"BSTAR":0.0016153059,"MEAN_MOTION_DOT":3.93e-6,"MEAN_MOTION_DDOT":0},{"OBJECT_NAME":"TIANTONG-1 3","OBJECT_ID":"2021-003A","EPOCH":"2026-03-02T17:02:16.891008","MEAN_MOTION":1.00269909,"ECCENTRICITY":0.0006622,"INCLINATION":1.8555,"RA_OF_ASC_NODE":332.988,"ARG_OF_PERICENTER":340.6572,"MEAN_ANOMALY":183.9058,"EPHEMERIS_TYPE":0,"CLASSIFICATION_TYPE":"U","NORAD_CAT_ID":47321,"ELEMENT_SET_NO":999,"REV_AT_EPOCH":1889,"BSTAR":0,"MEAN_MOTION_DOT":-1.7e-6,"MEAN_MOTION_DDOT":0},{"OBJECT_NAME":"TJS-6","OBJECT_ID":"2021-010A","EPOCH":"2026-03-02T16:40:26.781888","MEAN_MOTION":1.00270041,"ECCENTRICITY":0.0003194,"INCLINATION":0.3248,"RA_OF_ASC_NODE":90.8809,"ARG_OF_PERICENTER":282.2043,"MEAN_ANOMALY":215.9755,"EPHEMERIS_TYPE":0,"CLASSIFICATION_TYPE":"U","NORAD_CAT_ID":47613,"ELEMENT_SET_NO":999,"REV_AT_EPOCH":1874,"BSTAR":0,"MEAN_MOTION_DOT":2.6e-7,"MEAN_MOTION_DDOT":0},{"OBJECT_NAME":"ARKTIKA-M 1","OBJECT_ID":"2021-016A","EPOCH":"2026-03-02T19:44:56.440608","MEAN_MOTION":2.00620868,"ECCENTRICITY":0.7242815,"INCLINATION":63.2036,"RA_OF_ASC_NODE":72.8571,"ARG_OF_PERICENTER":269.4536,"MEAN_ANOMALY":15.2019,"EPHEMERIS_TYPE":0,"CLASSIFICATION_TYPE":"U","NORAD_CAT_ID":47719,"ELEMENT_SET_NO":999,"REV_AT_EPOCH":3665,"BSTAR":0,"MEAN_MOTION_DOT":-1.08e-6,"MEAN_MOTION_DDOT":0},{"OBJECT_NAME":"FREGAT R/B","OBJECT_ID":"2021-016B","EPOCH":"2026-03-01T21:49:45.493248","MEAN_MOTION":1.98956105,"ECCENTRICITY":0.73646663,"INCLINATION":63.2285,"RA_OF_ASC_NODE":65.8235,"ARG_OF_PERICENTER":267.1765,"MEAN_ANOMALY":14.9941,"EPHEMERIS_TYPE":0,"CLASSIFICATION_TYPE":"U","NORAD_CAT_ID":47720,"ELEMENT_SET_NO":999,"REV_AT_EPOCH":3630,"BSTAR":0,"MEAN_MOTION_DOT":-1.502e-5,"MEAN_MOTION_DDOT":0},{"OBJECT_NAME":"SHIYAN-9 (SY-9)","OBJECT_ID":"2021-019A","EPOCH":"2026-02-13T08:49:37.634880","MEAN_MOTION":1.00262375,"ECCENTRICITY":0.0016854,"INCLINATION":16.7978,"RA_OF_ASC_NODE":304.0404,"ARG_OF_PERICENTER":23.4452,"MEAN_ANOMALY":94.4865,"EPHEMERIS_TYPE":0,"CLASSIFICATION_TYPE":"U","NORAD_CAT_ID":47851,"ELEMENT_SET_NO":999,"REV_AT_EPOCH":2289,"BSTAR":0,"MEAN_MOTION_DOT":-2.21e-6,"MEAN_MOTION_DDOT":0},{"OBJECT_NAME":"SL-6 DEB","OBJECT_ID":"1980-063E","EPOCH":"2026-02-27T04:54:04.061088","MEAN_MOTION":2.11466866,"ECCENTRICITY":0.71226438,"INCLINATION":63.9001,"RA_OF_ASC_NODE":0.2858,"ARG_OF_PERICENTER":284.4845,"MEAN_ANOMALY":11.8012,"EPHEMERIS_TYPE":0,"CLASSIFICATION_TYPE":"U","NORAD_CAT_ID":48261,"ELEMENT_SET_NO":999,"REV_AT_EPOCH":9468,"BSTAR":0.0015340945,"MEAN_MOTION_DOT":1.59e-6,"MEAN_MOTION_DDOT":0},{"OBJECT_NAME":"SL-6 DEB","OBJECT_ID":"1980-063F","EPOCH":"2026-03-02T10:12:18.605376","MEAN_MOTION":2.05119247,"ECCENTRICITY":0.72213528,"INCLINATION":63.5913,"RA_OF_ASC_NODE":18.2182,"ARG_OF_PERICENTER":280.8708,"MEAN_ANOMALY":337.5656,"EPHEMERIS_TYPE":0,"CLASSIFICATION_TYPE":"U","NORAD_CAT_ID":48262,"ELEMENT_SET_NO":999,"REV_AT_EPOCH":9197,"BSTAR":0.0041556557,"MEAN_MOTION_DOT":-3.84e-6,"MEAN_MOTION_DDOT":0},{"OBJECT_NAME":"COSMOS 1367 DEB","OBJECT_ID":"1982-045E","EPOCH":"2026-03-02T11:21:15.120288","MEAN_MOTION":2.06314986,"ECCENTRICITY":0.7205229,"INCLINATION":64.1036,"RA_OF_ASC_NODE":65.6335,"ARG_OF_PERICENTER":13.4152,"MEAN_ANOMALY":358.4753,"EPHEMERIS_TYPE":0,"CLASSIFICATION_TYPE":"U","NORAD_CAT_ID":48266,"ELEMENT_SET_NO":999,"REV_AT_EPOCH":4542,"BSTAR":0.025322,"MEAN_MOTION_DOT":-3.14e-6,"MEAN_MOTION_DDOT":0},{"OBJECT_NAME":"ARIANE 3 DEB","OBJECT_ID":"1984-081G","EPOCH":"2026-03-01T22:24:59.231232","MEAN_MOTION":2.08089543,"ECCENTRICITY":0.70969268,"INCLINATION":6.119,"RA_OF_ASC_NODE":30.5378,"ARG_OF_PERICENTER":303.6596,"MEAN_ANOMALY":7.7829,"EPHEMERIS_TYPE":0,"CLASSIFICATION_TYPE":"U","NORAD_CAT_ID":48347,"ELEMENT_SET_NO":999,"REV_AT_EPOCH":9341,"BSTAR":0,"MEAN_MOTION_DOT":-3.48e-6,"MEAN_MOTION_DDOT":0},{"OBJECT_NAME":"SBIRS GEO-5 (USA 315)","OBJECT_ID":"2021-042A","EPOCH":"2026-03-02T19:09:23.649696","MEAN_MOTION":1.0027149,"ECCENTRICITY":0.0001558,"INCLINATION":5.239,"RA_OF_ASC_NODE":328.3273,"ARG_OF_PERICENTER":356.8913,"MEAN_ANOMALY":216.475,"EPHEMERIS_TYPE":0,"CLASSIFICATION_TYPE":"U","NORAD_CAT_ID":48618,"ELEMENT_SET_NO":999,"REV_AT_EPOCH":1770,"BSTAR":0,"MEAN_MOTION_DOT":-2.83e-6,"MEAN_MOTION_DDOT":0}]
